start=new Date('2022-06-12T00:00:00.000Z').valueOf();
sats=[{"FILE":"3492149","PERIAPSIS":"538.657","OBJECT_NAME":"STARLINK-3370","SITE":"AFETR","LAUNCH_DATE":"2022-01-19","CLASSIFICATION_TYPE":"U","MEAN_MOTION":"15.08844517","EPHEMERIS_TYPE":"0","MEAN_ELEMENT_THEORY":"SGP4","MEAN_MOTION_DDOT":"0.0000000000000","APOAPSIS":"540.806","DECAY_DATE":null,"TIME_SYSTEM":"UTC","ELEMENT_SET_NO":"999","REF_FRAME":"TEME","REV_AT_EPOCH":"2238","SEMIMAJOR_AXIS":"6917.867","BSTAR":"0.00006293700000","GP_ID":"205928529","RA_OF_ASC_NODE":"315.2156","RCS_SIZE":"LARGE","INCLINATION":"53.2205","MEAN_MOTION_DOT":"0.00000714","COUNTRY_CODE":"US","OBJECT_TYPE":"PAYLOAD","CENTER_NAME":"EARTH","TLE_LINE1":"1 51127U 22005Z   22162.82318841  .00000714  00000-0  62937-4 0  9996","MEAN_ANOMALY":"296.5811","NORAD_CAT_ID":"51127","TLE_LINE2":"2 51127  53.2205 315.2156 0001553  63.5340 296.5811 15.08844517 22383","ECCENTRICITY":"0.00015530","EPOCH":"2022-06-11T19:45:23.478624","PERIOD":"95.437","ARG_OF_PERICENTER":"63.5340","OBJECT_ID":"2022-005Z"},{"REV_AT_EPOCH":"2237","SEMIMAJOR_AXIS":"6917.877","BSTAR":"0.00008527500000","SITE":"AFETR","OBJECT_NAME":"STARLINK-3400","LAUNCH_DATE":"2022-01-19","CLASSIFICATION_TYPE":"U","FILE":"3492149","PERIAPSIS":"538.488","EPHEMERIS_TYPE":"0","MEAN_ELEMENT_THEORY":"SGP4","MEAN_MOTION":"15.08841111","DECAY_DATE":null,"APOAPSIS":"540.996","MEAN_MOTION_DDOT":"0.0000000000000","ELEMENT_SET_NO":"999","TIME_SYSTEM":"UTC","REF_FRAME":"TEME","TLE_LINE1":"1 51128U 22005AA  22162.80479043  .00001069  00000-0  85275-4 0  9991","ECCENTRICITY":"0.00018120","TLE_LINE2":"2 51128  53.2193 315.3144 0001812  49.0883 311.0266 15.08841111 22370","MEAN_ANOMALY":"311.0266","NORAD_CAT_ID":"51128","OBJECT_ID":"2022-005AA","ARG_OF_PERICENTER":"49.0883","EPOCH":"2022-06-11T19:18:53.893152","PERIOD":"95.437","RA_OF_ASC_NODE":"315.3144","GP_ID":"205928779","RCS_SIZE":"LARGE","INCLINATION":"53.2193","MEAN_MOTION_DOT":"0.00001069","COUNTRY_CODE":"US","OBJECT_TYPE":"PAYLOAD","CENTER_NAME":"EARTH"},{"BSTAR":"0.00005999600000","SEMIMAJOR_AXIS":"6917.904","REV_AT_EPOCH":"2238","REF_FRAME":"TEME","TIME_SYSTEM":"UTC","ELEMENT_SET_NO":"999","MEAN_MOTION":"15.08832355","EPHEMERIS_TYPE":"0","MEAN_ELEMENT_THEORY":"SGP4","MEAN_MOTION_DDOT":"0.0000000000000","APOAPSIS":"541.030","DECAY_DATE":null,"FILE":"3492149","PERIAPSIS":"538.508","LAUNCH_DATE":"2022-01-19","SITE":"AFETR","CLASSIFICATION_TYPE":"U","OBJECT_NAME":"STARLINK-3396","EPOCH":"2022-06-11T19:57:23.324544","PERIOD":"95.438","ARG_OF_PERICENTER":"53.1021","OBJECT_ID":"2022-005AB","MEAN_ANOMALY":"307.0138","NORAD_CAT_ID":"51129","TLE_LINE2":"2 51129  53.2207 315.1897 0001823  53.1021 307.0138 15.08832355 22386","ECCENTRICITY":"0.00018230","TLE_LINE1":"1 51129U 22005AB  22162.83151996  .00000667  00000-0  59996-4 0  9993","CENTER_NAME":"EARTH","OBJECT_TYPE":"PAYLOAD","INCLINATION":"53.2207","MEAN_MOTION_DOT":"0.00000667","COUNTRY_CODE":"US","RCS_SIZE":"LARGE","GP_ID":"205929031","RA_OF_ASC_NODE":"315.1897"},{"TIME_SYSTEM":"UTC","ELEMENT_SET_NO":"999","REF_FRAME":"TEME","SITE":"AFETR","LAUNCH_DATE":"2022-01-19","OBJECT_NAME":"STARLINK-3395","CLASSIFICATION_TYPE":"U","PERIAPSIS":"538.488","FILE":"3492149","MEAN_ELEMENT_THEORY":"SGP4","EPHEMERIS_TYPE":"0","MEAN_MOTION":"15.08836392","APOAPSIS":"541.025","DECAY_DATE":null,"MEAN_MOTION_DDOT":"0.0000000000000","BSTAR":"0.00008312800000","REV_AT_EPOCH":"2237","SEMIMAJOR_AXIS":"6917.891","INCLINATION":"53.2188","MEAN_MOTION_DOT":"0.00001035","COUNTRY_CODE":"US","OBJECT_TYPE":"PAYLOAD","CENTER_NAME":"EARTH","RA_OF_ASC_NODE":"315.2623","GP_ID":"205929280","RCS_SIZE":"LARGE","TLE_LINE2":"2 51130  53.2188 315.2623 0001834  54.7838 305.3326 15.08836392 22373","ECCENTRICITY":"0.00018340","MEAN_ANOMALY":"305.3326","NORAD_CAT_ID":"51130","ARG_OF_PERICENTER":"54.7838","OBJECT_ID":"2022-005AC","EPOCH":"2022-06-11T19:34:48.296928","PERIOD":"95.438","TLE_LINE1":"1 51130U 22005AC  22162.81583677  .00001035  00000-0  83128-4 0  9992"},{"OBJECT_TYPE":"PAYLOAD","CENTER_NAME":"EARTH","INCLINATION":"53.2186","MEAN_MOTION_DOT":"-0.00000198","COUNTRY_CODE":"US","RCS_SIZE":"LARGE","GP_ID":"205928030","RA_OF_ASC_NODE":"315.2998","PERIOD":"95.437","EPOCH":"2022-06-11T19:24:11.700864","OBJECT_ID":"2022-005AD","ARG_OF_PERICENTER":"35.6258","NORAD_CAT_ID":"51131","MEAN_ANOMALY":"324.4845","TLE_LINE2":"2 51131  53.2186 315.2998 0001677  35.6258 324.4845 15.08842715 22370","ECCENTRICITY":"0.00016770","TLE_LINE1":"1 51131U 22005AD  22162.80846876 -.00000198  00000-0  56750-5 0  9997","REF_FRAME":"TEME","TIME_SYSTEM":"UTC","ELEMENT_SET_NO":"999","MEAN_MOTION":"15.08842715","MEAN_ELEMENT_THEORY":"SGP4","EPHEMERIS_TYPE":"0","MEAN_MOTION_DDOT":"0.0000000000000","DECAY_DATE":null,"APOAPSIS":"540.897","FILE":"3492149","PERIAPSIS":"538.577","SITE":"AFETR","OBJECT_NAME":"STARLINK-3388","LAUNCH_DATE":"2022-01-19","CLASSIFICATION_TYPE":"U","BSTAR":"0.00000567500000","SEMIMAJOR_AXIS":"6917.872","REV_AT_EPOCH":"2237"},{"SEMIMAJOR_AXIS":"6917.872","REV_AT_EPOCH":"2236","BSTAR":"0.00013262000000","MEAN_MOTION":"15.08842649","MEAN_ELEMENT_THEORY":"SGP4","EPHEMERIS_TYPE":"0","MEAN_MOTION_DDOT":"0.0000000000000","DECAY_DATE":null,"APOAPSIS":"540.828","FILE":"3492149","PERIAPSIS":"538.647","SITE":"AFETR","CLASSIFICATION_TYPE":"U","LAUNCH_DATE":"2022-01-19","OBJECT_NAME":"STARLINK-3393","REF_FRAME":"TEME","ELEMENT_SET_NO":"999","TIME_SYSTEM":"UTC","TLE_LINE1":"1 51132U 22005AE  22162.74591231  .00001823  00000-0  13262-3 0  9997","PERIOD":"95.437","EPOCH":"2022-06-11T17:54:06.823584","OBJECT_ID":"2022-005AE","ARG_OF_PERICENTER":"65.5285","MEAN_ANOMALY":"294.5872","NORAD_CAT_ID":"51132","TLE_LINE2":"2 51132  53.2184 315.5778 0001576  65.5285 294.5872 15.08842649 22360","ECCENTRICITY":"0.00015760","RCS_SIZE":"LARGE","GP_ID":"205928280","RA_OF_ASC_NODE":"315.5778","CENTER_NAME":"EARTH","OBJECT_TYPE":"PAYLOAD","INCLINATION":"53.2184","MEAN_MOTION_DOT":"0.00001823","COUNTRY_CODE":"US"},{"MEAN_ELEMENT_THEORY":"SGP4","EPHEMERIS_TYPE":"0","MEAN_MOTION":"15.08848268","APOAPSIS":"540.873","DECAY_DATE":null,"MEAN_MOTION_DDOT":"0.0000000000000","SITE":"AFETR","LAUNCH_DATE":"2022-01-19","CLASSIFICATION_TYPE":"U","OBJECT_NAME":"STARLINK-3356","FILE":"3492149","PERIAPSIS":"538.567","REF_FRAME":"TEME","TIME_SYSTEM":"UTC","ELEMENT_SET_NO":"999","SEMIMAJOR_AXIS":"6917.855","REV_AT_EPOCH":"2238","BSTAR":"0.00014359000000","RCS_SIZE":"LARGE","RA_OF_ASC_NODE":"315.0330","GP_ID":"205929531","CENTER_NAME":"EARTH","OBJECT_TYPE":"PAYLOAD","MEAN_MOTION_DOT":"0.00001998","INCLINATION":"53.2180","COUNTRY_CODE":"US","TLE_LINE1":"1 51133U 22005AF  22162.86734662  .00001998  00000-0  14359-3 0  9999","OBJECT_ID":"2022-005AF","ARG_OF_PERICENTER":"56.4349","PERIOD":"95.437","EPOCH":"2022-06-11T20:48:58.747968","TLE_LINE2":"2 51133  53.2180 315.0330 0001667  56.4349 303.6802 15.08848268 22387","ECCENTRICITY":"0.00016670","MEAN_ANOMALY":"303.6802","NORAD_CAT_ID":"51133"},{"RCS_SIZE":"LARGE","GP_ID":"205929780","RA_OF_ASC_NODE":"305.4429","CENTER_NAME":"EARTH","OBJECT_TYPE":"PAYLOAD","MEAN_MOTION_DOT":"-0.00001288","INCLINATION":"53.2162","COUNTRY_CODE":"US","TLE_LINE1":"1 51134U 22005AG  22162.76987760 -.00001288  00000-0 -62822-4 0  9991","EPOCH":"2022-06-11T18:28:37.424640","PERIOD":"95.438","ARG_OF_PERICENTER":"35.7620","OBJECT_ID":"2022-005AG","MEAN_ANOMALY":"324.3511","NORAD_CAT_ID":"51134","TLE_LINE2":"2 51134  53.2162 305.4429 0002082  35.7620 324.3511 15.08834733 22529","ECCENTRICITY":"0.00020820","MEAN_MOTION":"15.08834733","MEAN_ELEMENT_THEORY":"SGP4","EPHEMERIS_TYPE":"0","MEAN_MOTION_DDOT":"0.0000000000000","APOAPSIS":"541.202","DECAY_DATE":null,"FILE":"3492149","PERIAPSIS":"538.321","SITE":"AFETR","LAUNCH_DATE":"2022-01-19","CLASSIFICATION_TYPE":"U","OBJECT_NAME":"STARLINK-3183","REF_FRAME":"TEME","TIME_SYSTEM":"UTC","ELEMENT_SET_NO":"999","SEMIMAJOR_AXIS":"6917.896","REV_AT_EPOCH":"2252","BSTAR":"-0.00006282200000"},{"BSTAR":"0.00004964600000","SEMIMAJOR_AXIS":"6917.925","REV_AT_EPOCH":"2238","REF_FRAME":"TEME","TIME_SYSTEM":"UTC","ELEMENT_SET_NO":"999","APOAPSIS":"540.992","DECAY_DATE":null,"MEAN_MOTION_DDOT":"0.0000000000000","EPHEMERIS_TYPE":"0","MEAN_ELEMENT_THEORY":"SGP4","MEAN_MOTION":"15.08825250","OBJECT_NAME":"STARLINK-3363","SITE":"AFETR","LAUNCH_DATE":"2022-01-19","CLASSIFICATION_TYPE":"U","FILE":"3492149","PERIAPSIS":"538.589","OBJECT_ID":"2022-005AH","ARG_OF_PERICENTER":"50.0458","PERIOD":"95.438","EPOCH":"2022-06-11T20:43:42.520512","ECCENTRICITY":"0.00017370","TLE_LINE2":"2 51135  53.2196 315.0495 0001737  50.0458 310.0686 15.08825250 22385","MEAN_ANOMALY":"310.0686","NORAD_CAT_ID":"51135","TLE_LINE1":"1 51135U 22005AH  22162.86368658  .00000502  00000-0  49646-4 0  9997","CENTER_NAME":"EARTH","OBJECT_TYPE":"PAYLOAD","COUNTRY_CODE":"US","INCLINATION":"53.2196","MEAN_MOTION_DOT":"0.00000502","RCS_SIZE":"LARGE","RA_OF_ASC_NODE":"315.0495","GP_ID":"205928530"},{"REV_AT_EPOCH":"2238","SEMIMAJOR_AXIS":"6917.916","BSTAR":"-0.00002706300000","FILE":"3492149","PERIAPSIS":"538.616","CLASSIFICATION_TYPE":"U","SITE":"AFETR","LAUNCH_DATE":"2022-01-19","OBJECT_NAME":"STARLINK-3253","MEAN_MOTION_DDOT":"0.0000000000000","APOAPSIS":"540.945","DECAY_DATE":null,"MEAN_MOTION":"15.08828497","EPHEMERIS_TYPE":"0","MEAN_ELEMENT_THEORY":"SGP4","TIME_SYSTEM":"UTC","ELEMENT_SET_NO":"999","REF_FRAME":"TEME","TLE_LINE1":"1 51136U 22005AJ  22162.86464074 -.00000719  00000-0 -27063-4 0  9998","NORAD_CAT_ID":"51136","MEAN_ANOMALY":"304.5165","TLE_LINE2":"2 51136  53.2180 315.0481 0001683  55.5986 304.5165 15.08828497 22386","ECCENTRICITY":"0.00016830","PERIOD":"95.438","EPOCH":"2022-06-11T20:45:04.959936","OBJECT_ID":"2022-005AJ","ARG_OF_PERICENTER":"55.5986","GP_ID":"205928780","RA_OF_ASC_NODE":"315.0481","RCS_SIZE":"LARGE","COUNTRY_CODE":"US","INCLINATION":"53.2180","MEAN_MOTION_DOT":"-0.00000719","OBJECT_TYPE":"PAYLOAD","CENTER_NAME":"EARTH"}];
